{
    "type": "FeatureCollection",
    "features": [
        {
            "type": "Feature",
            "properties": {
                "Rektorat Ulbi": 1
            },
            "geometry": {
                "type": "LineString",
                "coordinates": [
                    [
                        107.5755379,
                        -6.8736916
                    ],
                    [
                        107.5755038,
                        -6.8738695
                    ],
                    [
                        107.5756476,
                        -6.873899
                    ],
                    [
                        107.5756508,
                        -6.8739045
                    ],
                    [
                        107.5757325,
                        -6.8739201
                    ],
                    [
                        107.5757319,
                        -6.8739136
                    ],
                    [
                        107.5758162,
                        -6.873924
                    ],
                    [
                        107.5758537,
                        -6.8737484
                    ],
                    [
                        107.5755382,
                        -6.8736906
                    ]
                ]
            }
        },
        {
            "type": "Feature",
            "properties": {
                "Auditorium": 1
            },
            "geometry": {
                "type": "LineString",
                "coordinates": [
                    [
                        107.5760208,
                        -6.8732867
                    ],
                    [
                        107.5759668,
                        -6.8736581
                    ],
                    [
                        107.5762241,
                        -6.8737024
                    ],
                    [
                        107.5762866,
                        -6.8733237
                    ],
                    [
                        107.5760165,
                        -6.8732853
                    ]
                ]
            }
        },
        {
            "type": "Feature",
            "properties": {
                "Gor": 1
            },
            "geometry": {
                "type": "LineString",
                "coordinates": [
                    [
                        107.5765263,
                        -6.8734019
                    ],
                    [
                        107.5765703,
                        -6.8731093
                    ],
                    [
                        107.5768857,
                        -6.8731551
                    ],
                    [
                        107.5768362,
                        -6.8734503
                    ],
                    [
                        107.5765278,
                        -6.8734011
                    ]
                ]
            }
        },
        {
            "type": "Feature",
            "properties": {
                "gandaria": 1
            },
            "geometry": {
                "type": "LineString",
                "coordinates": [
                    [
                        107.5754182,
                        -6.8738583
                    ],
                    [
                        107.5753811,
                        -6.8740978
                    ],
                    [
                        107.5751699,
                        -6.8740706
                    ],
                    [
                        107.575183,
                        -6.8739679
                    ],
                    [
                        107.5750061,
                        -6.873948
                    ],
                    [
                        107.5750272,
                        -6.8737434
                    ],
                    [
                        107.5751951,
                        -6.873756
                    ],
                    [
                        107.5751885,
                        -6.8738334
                    ],
                    [
                        107.5754132,
                        -6.8738556
                    ]
                ]
            }
        },
        {
            "type": "Feature",
            "properties": {
                "Pos satpam": 1
            },
            "geometry": {
                "type": "LineString",
                "coordinates": [
                    [
                        107.5759326,
                        -6.8741722
                    ],
                    [
                        107.5758758,
                        -6.8741575
                    ],
                    [
                        107.5758894,
                        -6.874071
                    ],
                    [
                        107.5759485,
                        -6.8740798
                    ],
                    [
                        107.5759325,
                        -6.8741719
                    ]
                ]
            }
        },
        {
            "type": "Feature",
            "properties": {
                "Pos ind": 1
            },
            "geometry": {
                "type": "LineString",
                "coordinates": [
                    [
                        107.5758729,
                        -6.8741621
                    ],
                    [
                        107.5760212,
                        -6.8741844
                    ],
                    [
                        107.5760032,
                        -6.8742886
                    ],
                    [
                        107.5758644,
                        -6.8742644
                    ],
                    [
                        107.5758728,
                        -6.8741629
                    ]
                ]
            }
        },
        {
            "type": "Feature",
            "properties": {
                "Masjid": 1
            },
            "geometry": {
                "type": "LineString",
                "coordinates": [
                    [
                        107.575897,
                        -6.8729361
                    ],
                    [
                        107.5759113,
                        -6.8728467
                    ],
                    [
                        107.5759202,
                        -6.8728508
                    ],
                    [
                        107.5759543,
                        -6.872718
                    ],
                    [
                        107.5759645,
                        -6.8727248
                    ],
                    [
                        107.5759933,
                        -6.872625
                    ],
                    [
                        107.5761021,
                        -6.872644
                    ],
                    [
                        107.5760845,
                        -6.8727262
                    ],
                    [
                        107.5761274,
                        -6.8727399
                    ],
                    [
                        107.576106,
                        -6.8728958
                    ],
                    [
                        107.5760361,
                        -6.8728745
                    ],
                    [
                        107.5760315,
                        -6.8728935
                    ],
                    [
                        107.5760039,
                        -6.8728882
                    ],
                    [
                        107.5759702,
                        -6.8729574
                    ],
                    [
                        107.5758966,
                        -6.8729361
                    ]
                ]
            }
        },
        {
            "type": "Feature",
            "properties": {
                "gudang": 1
            },
            "geometry": {
                "type": "LineString",
                "coordinates": [
                    [
                        107.5759664,
                        -6.8740212
                    ],
                    [
                        107.5759553,
                        -6.8741118
                    ],
                    [
                        107.5760732,
                        -6.8741272
                    ],
                    [
                        107.576091,
                        -6.8740411
                    ],
                    [
                        107.5759675,
                        -6.8740212
                    ]
                ]
            }
        },
        {
            "type": "Feature",
            "properties": {
                "lapang tenis": 1
            },
            "geometry": {
                "type": "LineString",
                "coordinates": [
                    [
                        107.5767048,
                        -6.8730525
                    ],
                    [
                        107.5769964,
                        -6.8731059
                    ],
                    [
                        107.5770576,
                        -6.8727814
                    ],
                    [
                        107.5767382,
                        -6.8727261
                    ],
                    [
                        107.5767233,
                        -6.8727888
                    ],
                    [
                        107.5766546,
                        -6.8727906
                    ],
                    [
                        107.5766305,
                        -6.8729713
                    ],
                    [
                        107.5767048,
                        -6.8729861
                    ],
                    [
                        107.5767066,
                        -6.8730488
                    ]
                ]
            }
        },
        {
            "type": "Feature",
            "properties": {
                "sarpras": 1
            },
            "geometry": {
                "type": "LineString",
                "coordinates": [
                    [
                        107.5766984,
                        -6.8729891
                    ],
                    [
                        107.5766823,
                        -6.8731005
                    ],
                    [
                        107.5766182,
                        -6.8730886
                    ],
                    [
                        107.5766363,
                        -6.8729762
                    ],
                    [
                        107.5767004,
                        -6.8729881
                    ]
                ]
            }
        },
        {
            "type": "Feature",
            "properties": {
                "parkiran": 2
            },
            "geometry": {
                "type": "LineString",
                "coordinates": [
                    [
                        107.5768431,
                        -6.8733958
                    ],
                    [
                        107.5768826,
                        -6.8734046
                    ],
                    [
                        107.576965,
                        -6.8731907
                    ],
                    [
                        107.5769035,
                        -6.8731798
                    ],
                    [
                        107.5769101,
                        -6.8731318
                    ],
                    [
                        107.5768507,
                        -6.8731231
                    ],
                    [
                        107.5768463,
                        -6.8731427
                    ],
                    [
                        107.5768925,
                        -6.8731525
                    ],
                    [
                        107.5768431,
                        -6.8733958
                    ]
                ]
            }
        },
        {
            "type": "Feature",
            "properties": {
                "kantin oren": 3
            },
            "geometry": {
                "type": "LineString",
                "coordinates": [
                    [
                        107.5768481,
                        -6.8733968
                    ],
                    [
                        107.5768384,
                        -6.8734501
                    ],
                    [
                        107.5768115,
                        -6.8734513
                    ],
                    [
                        107.5768091,
                        -6.8734841
                    ],
                    [
                        107.5767188,
                        -6.8734707
                    ],
                    [
                        107.576709,
                        -6.8735798
                    ],
                    [
                        107.5768249,
                        -6.8736101
                    ],
                    [
                        107.5768396,
                        -6.8735035
                    ],
                    [
                        107.576864,
                        -6.8735022
                    ],
                    [
                        107.576875,
                        -6.8734065
                    ],
                    [
                        107.5768494,
                        -6.873398
                    ]
                ]
            }
        },
        {
            "type": "Feature",
            "properties": {
                "koperasi": 4
            },
            "geometry": {
                "type": "LineString",
                "coordinates": [
                    [
                        107.5765648,
                        -6.8734504
                    ],
                    [
                        107.5765554,
                        -6.8735144
                    ],
                    [
                        107.5767086,
                        -6.8735384
                    ],
                    [
                        107.5767135,
                        -6.8734722
                    ],
                    [
                        107.5765672,
                        -6.8734468
                    ]
                ]
            }
        },
        {
            "type": "Feature",
            "properties": {
                "COT": 5
            },
            "geometry": {
                "type": "LineString",
                "coordinates": [
                    [
                        107.5764776,
                        -6.8735818
                    ],
                    [
                        107.5764635,
                        -6.8736868
                    ],
                    [
                        107.576619,
                        -6.8737145
                    ],
                    [
                        107.5766411,
                        -6.8735818
                    ],
                    [
                        107.5764812,
                        -6.8735539
                    ],
                    [
                        107.5764789,
                        -6.8735818
                    ]
                ]
            }
        },
        {
            "type": "Feature",
            "properties": {
                "Logic Coffee": 6
            },
            "geometry": {
                "type": "LineString",
                "coordinates": [
                    [
                        107.5762039,
                        -6.8737797
                    ],
                    [
                        107.5762604,
                        -6.8737539
                    ],
                    [
                        107.5762246,
                        -6.8737143
                    ],
                    [
                        107.5761855,
                        -6.8737104
                    ],
                    [
                        107.5761778,
                        -6.8737603
                    ],
                    [
                        107.5762039,
                        -6.8737797
                    ]
                ]
            }
        },
        {
            "type": "Feature",
            "properties": {
                "Parkiran Vokasi": 7
            },
            "geometry": {
                "type": "LineString",
                "coordinates": [
                    [
                        107.5752505,
                        -6.8736253
                    ],
                    [
                        107.575251,
                        -6.8736263
                    ],
                    [
                        107.575063,
                        -6.8735862
                    ],
                    [
                        107.5751522,
                        -6.8731414
                    ],
                    [
                        107.5752553,
                        -6.8731678
                    ],
                    [
                        107.5752221,
                        -6.8735899
                    ],
                    [
                        107.5752559,
                        -6.8735926
                    ],
                    [
                        107.5752506,
                        -6.8736275
                    ]
                ]
            }
        },
        {
            "type": "Feature",
            "properties": {
                "Pendopo": 8
            },
            "geometry": {
                "type": "LineString",
                "coordinates": [
                    [
                        107.5760899,
                        -6.8732314
                    ],
                    [
                        107.5761191,
                        -6.8731082
                    ],
                    [
                        107.5759989,
                        -6.873099
                    ],
                    [
                        107.575981,
                        -6.8732146
                    ],
                    [
                        107.5760909,
                        -6.8732327
                    ]
                ]
            }
        },
        {
            "type": "Feature",
            "properties": {
                "Yayasan": 9
            },
            "geometry": {
                "type": "LineString",
                "coordinates": [
                    [
                        107.575641,
                        -6.8747349
                    ],
                    [
                        107.5757536,
                        -6.8744785
                    ],
                    [
                        107.5756437,
                        -6.8744265
                    ],
                    [
                        107.5755411,
                        -6.8747064
                    ],
                    [
                        107.5756398,
                        -6.8747365
                    ]
                ]
            }
        },
        {
            "type": "Feature",
            "properties": {
                "MBG": 10
            },
            "geometry": {
                "type": "LineString",
                "coordinates": [
                    [
                        107.5768976,
                        -6.8719993
                    ],
                    [
                        107.576972,
                        -6.8719093
                    ],
                    [
                        107.5771321,
                        -6.8720682
                    ],
                    [
                        107.5770382,
                        -6.8721346
                    ],
                    [
                        107.5768958,
                        -6.8720019
                    ]
                ]
            }
        },
        {
            "type": "Feature",
            "properties": {
                "Sekre": 11
            },
            "geometry": {
                "type": "LineString",
                "coordinates": [
                    [
                        107.5761725,
                        -6.8722702
                    ],
                    [
                        107.5761174,
                        -6.8723864
                    ],
                    [
                        107.5761974,
                        -6.8724206
                    ],
                    [
                        107.5762508,
                        -6.872311
                    ],
                    [
                        107.5761747,
                        -6.872267
                    ]
                ]
            }
        },
        {
            "type": "Feature",
            "properties": {
                "tempat air": 12
            },
            "geometry": {
                "type": "LineString",
                "coordinates": [
                    [
                        107.576682,
                        -6.8722254
                    ],
                    [
                        107.576656,
                        -6.8724217
                    ],
                    [
                        107.5765649,
                        -6.8724062
                    ],
                    [
                        107.5765749,
                        -6.8723243
                    ],
                    [
                        107.5766115,
                        -6.8723331
                    ],
                    [
                        107.576624,
                        -6.8722216
                    ],
                    [
                        107.5766816,
                        -6.8722265
                    ]
                ]
            }
        },
        {
            "type": "Feature",
            "properties": {
                "Parkiran fltb": 13
            },
            "geometry": {
                "type": "LineString",
                "coordinates": [
                    [
                        107.576373,
                        -6.8730356
                    ],
                    [
                        107.5763506,
                        -6.8731246
                    ],
                    [
                        107.5759955,
                        -6.8730673
                    ],
                    [
                        107.5760165,
                        -6.8729847
                    ],
                    [
                        107.5763718,
                        -6.8730347
                    ]
                ]
            }
        },
        {
            "type": "Feature",
            "properties": {
                "parkiran rektorat": 14
            },
            "geometry": {
                "type": "LineString",
                "coordinates": [
                    [
                        107.575787,
                        -6.8740409
                    ],
                    [
                        107.5757397,
                        -6.8743639
                    ],
                    [
                        107.5755093,
                        -6.874252
                    ],
                    [
                        107.5755473,
                        -6.873972
                    ],
                    [
                        107.5757963,
                        -6.8740137
                    ],
                    [
                        107.5757859,
                        -6.8740445
                    ]
                ]
            }
        },
        {
            "type": "Feature",
            "properties": {
                "ULBI": 14
            },
            "geometry": {
                "type": "LineString",
                "coordinates": [
                    [
                        107.575643,
                        -6.8748551
                    ],
                    [
                        107.5755725,
                        -6.8748179
                    ],
                    [
                        107.5756072,
                        -6.8747454
                    ],
                    [
                        107.575515,
                        -6.874707
                    ],
                    [
                        107.5756549,
                        -6.8743721
                    ],
                    [
                        107.574845,
                        -6.8740332
                    ],
                    [
                        107.5749241,
                        -6.8736443
                    ],
                    [
                        107.575053,
                        -6.8735784
                    ],
                    [
                        107.5751288,
                        -6.873135
                    ],
                    [
                        107.5754579,
                        -6.8729443
                    ],
                    [
                        107.5755097,
                        -6.8724198
                    ],
                    [
                        107.5761189,
                        -6.8725773
                    ],
                    [
                        107.5761741,
                        -6.8724479
                    ],
                    [
                        107.5761031,
                        -6.8723808
                    ],
                    [
                        107.5761728,
                        -6.8722575
                    ],
                    [
                        107.5762399,
                        -6.8722254
                    ],
                    [
                        107.5764983,
                        -6.8723744
                    ],
                    [
                        107.5766102,
                        -6.8721712
                    ],
                    [
                        107.5766996,
                        -6.8721907
                    ],
                    [
                        107.5769798,
                        -6.8719014
                    ],
                    [
                        107.5772556,
                        -6.8721494
                    ],
                    [
                        107.5771345,
                        -6.872748
                    ],
                    [
                        107.5770558,
                        -6.8727927
                    ],
                    [
                        107.5769924,
                        -6.8732163
                    ],
                    [
                        107.5768377,
                        -6.873631
                    ],
                    [
                        107.5767007,
                        -6.8736156
                    ],
                    [
                        107.5766345,
                        -6.8736584
                    ],
                    [
                        107.5765997,
                        -6.8737616
                    ],
                    [
                        107.5761131,
                        -6.8740328
                    ],
                    [
                        107.5759174,
                        -6.8744588
                    ],
                    [
                        107.5758857,
                        -6.8744413
                    ],
                    [
                        107.5756718,
                        -6.874863
                    ],
                    [
                        107.5756447,
                        -6.8748544
                    ]
                ]
            }
        },
        {
            "type": "Feature",
            "properties": {
                "Vokasi": 15
            },
            "geometry": {
                "type": "LineString",
                "coordinates": [
                    [
                        107.5752548,
                        -6.8732158
                    ],
                    [
                        107.575226,
                        -6.873582
                    ],
                    [
                        107.5757869,
                        -6.8736299
                    ],
                    [
                        107.5758161,
                        -6.8732574
                    ],
                    [
                        107.5752539,
                        -6.8732168
                    ]
                ]
            }
        },
        {
            "type": "Feature",
            "properties": {
                "Anggrek": 16
            },
            "geometry": {
                "type": "LineString",
                "coordinates": [
                    [
                        107.5755049,
                        -6.8725544
                    ],
                    [
                        107.5754649,
                        -6.8730197
                    ],
                    [
                        107.5758381,
                        -6.8730597
                    ],
                    [
                        107.575893,
                        -6.8725943
                    ],
                    [
                        107.5755048,
                        -6.8725507
                    ]
                ]
            }
        },
        {
            "type": "Feature",
            "properties": {
                "FLTB": 17
            },
            "geometry": {
                "type": "LineString",
                "coordinates": [
                    [
                        107.5761692,
                        -6.8724892
                    ],
                    [
                        107.5761012,
                        -6.872957
                    ],
                    [
                        107.576445,
                        -6.8730043
                    ],
                    [
                        107.5765168,
                        -6.8725411
                    ],
                    [
                        107.5761692,
                        -6.8724899
                    ]
                ]
            }
        },
        {
            "type": "Feature",
            "properties": {
                "Raflesia": 18
            },
            "geometry": {
                "type": "LineString",
                "coordinates": [
                    [
                        107.576814,
                        -6.8721797
                    ],
                    [
                        107.5767501,
                        -6.8726325
                    ],
                    [
                        107.5770785,
                        -6.8726794
                    ],
                    [
                        107.5771398,
                        -6.8722239
                    ],
                    [
                        107.5768151,
                        -6.8721792
                    ]
                ]
            }
        }
    ]
}